start=new Date('2022-04-08T00:00:00.000Z').valueOf();
sats=[{"BSTAR":"0.00121840000000","PERIAPSIS":"454.809","INCLINATION":"53.0436","NORAD_CAT_ID":"47996","EPOCH":"2022-04-07T22:00:00.999936","OBJECT_TYPE":"PAYLOAD","COUNTRY_CODE":"US","EPHEMERIS_TYPE":"0","CLASSIFICATION_TYPE":"U","LAUNCH_DATE":"2021-03-24","RCS_SIZE":"LARGE","MEAN_ANOMALY":"282.1824","OBJECT_ID":"2021-024V","CENTER_NAME":"EARTH","ARG_OF_PERICENTER":"146.1005","TLE_LINE1":"1 47996U 21024V   22097.91667824  .00043867  00000-0  12184-2 0  9993","APOAPSIS":"458.288","TLE_LINE2":"2 47996  53.0436 159.4715 0002545 146.1005 282.1824 15.36473773  3638","MEAN_MOTION":"15.36473773","PERIOD":"93.721","MEAN_MOTION_DOT":"0.00043867","SITE":"AFETR","MEAN_ELEMENT_THEORY":"SGP4","GP_ID":"200700990","TIME_SYSTEM":"UTC","ECCENTRICITY":"0.00025450","FILE":"3392478","ELEMENT_SET_NO":"999","REF_FRAME":"TEME","MEAN_MOTION_DDOT":"0.0000000000000","REV_AT_EPOCH":"363","RA_OF_ASC_NODE":"159.4715","SEMIMAJOR_AXIS":"6834.683","DECAY_DATE":null,"OBJECT_NAME":"STARLINK-2260"},{"RA_OF_ASC_NODE":"259.8596","REV_AT_EPOCH":"5856","MEAN_MOTION_DDOT":"0.0000000000000","OBJECT_NAME":"STARLINK-2266","DECAY_DATE":null,"SEMIMAJOR_AXIS":"6925.320","ECCENTRICITY":"0.00014970","FILE":"3392109","TIME_SYSTEM":"UTC","ELEMENT_SET_NO":"999","REF_FRAME":"TEME","TLE_LINE2":"2 47997  53.0522 259.8596 0001497  61.2842 298.8297 15.06409274 58560","APOAPSIS":"548.222","TLE_LINE1":"1 47997U 21024W   22097.74840380  .00008195  00000-0  56827-3 0  9993","CENTER_NAME":"EARTH","ARG_OF_PERICENTER":"61.2842","OBJECT_ID":"2021-024W","RCS_SIZE":"LARGE","MEAN_ANOMALY":"298.8297","GP_ID":"200671181","MEAN_ELEMENT_THEORY":"SGP4","SITE":"AFETR","PERIOD":"95.592","MEAN_MOTION_DOT":"0.00008195","MEAN_MOTION":"15.06409274","INCLINATION":"53.0522","PERIAPSIS":"546.148","BSTAR":"0.00056827000000","LAUNCH_DATE":"2021-03-24","CLASSIFICATION_TYPE":"U","EPHEMERIS_TYPE":"0","COUNTRY_CODE":"US","OBJECT_TYPE":"PAYLOAD","EPOCH":"2022-04-07T17:57:42.088320","NORAD_CAT_ID":"47997"},{"ECCENTRICITY":"0.00016290","FILE":"3392120","TIME_SYSTEM":"UTC","REF_FRAME":"TEME","ELEMENT_SET_NO":"999","RA_OF_ASC_NODE":"235.2187","REV_AT_EPOCH":"5889","MEAN_MOTION_DDOT":"0.0000000000000","OBJECT_NAME":"STARLINK-2296","DECAY_DATE":null,"SEMIMAJOR_AXIS":"6925.304","INCLINATION":"53.0555","PERIAPSIS":"546.041","BSTAR":"0.00117170000000","LAUNCH_DATE":"2021-03-24","CLASSIFICATION_TYPE":"U","EPHEMERIS_TYPE":"0","OBJECT_TYPE":"PAYLOAD","COUNTRY_CODE":"US","EPOCH":"2022-04-07T16:00:14.652864","NORAD_CAT_ID":"47998","TLE_LINE2":"2 47998  53.0555 235.2187 0001629  51.8074 308.3061 15.06414538 58891","TLE_LINE1":"1 47998U 21024X   22097.66683626  .00017221  00000-0  11717-2 0  9991","APOAPSIS":"548.297","ARG_OF_PERICENTER":"51.8074","CENTER_NAME":"EARTH","OBJECT_ID":"2021-024X","RCS_SIZE":"LARGE","MEAN_ANOMALY":"308.3061","GP_ID":"200670690","MEAN_ELEMENT_THEORY":"SGP4","SITE":"AFETR","PERIOD":"95.591","MEAN_MOTION_DOT":"0.00017221","MEAN_MOTION":"15.06414538"},{"BSTAR":"-0.00219400000000","PERIAPSIS":"546.127","INCLINATION":"53.0549","NORAD_CAT_ID":"47999","EPOCH":"2022-04-07T22:00:00.999936","OBJECT_TYPE":"PAYLOAD","COUNTRY_CODE":"US","EPHEMERIS_TYPE":"0","CLASSIFICATION_TYPE":"U","LAUNCH_DATE":"2021-03-24","MEAN_ANOMALY":"10.2687","RCS_SIZE":"LARGE","OBJECT_ID":"2021-024Y","ARG_OF_PERICENTER":"50.4783","CENTER_NAME":"EARTH","APOAPSIS":"548.212","TLE_LINE1":"1 47999U 21024Y   22097.91667824 -.00032824  00000-0 -21940-2 0  9999","TLE_LINE2":"2 47999  53.0549 204.1080 0001505  50.4783  10.2687 15.06414334  3580","MEAN_MOTION":"15.06414334","MEAN_MOTION_DOT":"-0.00032824","PERIOD":"95.591","SITE":"AFETR","MEAN_ELEMENT_THEORY":"SGP4","GP_ID":"200700244","TIME_SYSTEM":"UTC","FILE":"3392478","ECCENTRICITY":"0.00015050","ELEMENT_SET_NO":"999","REF_FRAME":"TEME","MEAN_MOTION_DDOT":"0.0000000000000","REV_AT_EPOCH":"358","RA_OF_ASC_NODE":"204.1080","SEMIMAJOR_AXIS":"6925.305","DECAY_DATE":null,"OBJECT_NAME":"STARLINK-2218"},{"MEAN_MOTION":"15.06433217","GP_ID":"200701491","MEAN_ELEMENT_THEORY":"SGP4","SITE":"AFETR","MEAN_MOTION_DOT":"-0.00045546","PERIOD":"95.590","OBJECT_ID":"2021-024Z","RCS_SIZE":"LARGE","MEAN_ANOMALY":"150.6985","TLE_LINE2":"2 48000  53.0542 189.0916 0002206  32.5516 150.6985 15.06433217  3581","TLE_LINE1":"1 48000U 21024Z   22097.91667824 -.00045546  00000-0 -30555-2 0  9990","APOAPSIS":"548.639","ARG_OF_PERICENTER":"32.5516","CENTER_NAME":"EARTH","OBJECT_TYPE":"PAYLOAD","COUNTRY_CODE":"US","EPOCH":"2022-04-07T22:00:00.999936","NORAD_CAT_ID":"48000","LAUNCH_DATE":"2021-03-24","CLASSIFICATION_TYPE":"U","EPHEMERIS_TYPE":"0","PERIAPSIS":"545.584","BSTAR":"-0.00305550000000","INCLINATION":"53.0542","DECAY_DATE":null,"SEMIMAJOR_AXIS":"6925.247","OBJECT_NAME":"STARLINK-2270","REV_AT_EPOCH":"358","MEAN_MOTION_DDOT":"0.0000000000000","RA_OF_ASC_NODE":"189.0916","REF_FRAME":"TEME","ELEMENT_SET_NO":"999","FILE":"3392478","ECCENTRICITY":"0.00022060","TIME_SYSTEM":"UTC"},{"REF_FRAME":"TEME","ELEMENT_SET_NO":"999","FILE":"3392478","ECCENTRICITY":"0.00014870","TIME_SYSTEM":"UTC","OBJECT_NAME":"STARLINK-2265","DECAY_DATE":null,"SEMIMAJOR_AXIS":"6925.269","RA_OF_ASC_NODE":"209.0930","REV_AT_EPOCH":"358","MEAN_MOTION_DDOT":"0.0000000000000","LAUNCH_DATE":"2021-03-24","EPHEMERIS_TYPE":"0","CLASSIFICATION_TYPE":"U","EPOCH":"2022-04-07T22:00:00.999936","OBJECT_TYPE":"PAYLOAD","COUNTRY_CODE":"US","NORAD_CAT_ID":"48002","INCLINATION":"53.0534","BSTAR":"-0.00010458000000","PERIAPSIS":"546.105","MEAN_ELEMENT_THEORY":"SGP4","GP_ID":"200701746","MEAN_MOTION_DOT":"-0.00001840","PERIOD":"95.591","SITE":"AFETR","MEAN_MOTION":"15.06425830","APOAPSIS":"548.164","TLE_LINE1":"1 48002U 21024AB  22097.91667824 -.00001840  00000-0 -10458-3 0  9992","TLE_LINE2":"2 48002  53.0534 209.0930 0001487  57.7367  35.5783 15.06425830  3585","CENTER_NAME":"EARTH","ARG_OF_PERICENTER":"57.7367","RCS_SIZE":"LARGE","MEAN_ANOMALY":"35.5783","OBJECT_ID":"2021-024AB"},{"OBJECT_NAME":"STARLINK-2263","SEMIMAJOR_AXIS":"6925.326","DECAY_DATE":null,"RA_OF_ASC_NODE":"284.6898","MEAN_MOTION_DDOT":"0.0000000000000","REV_AT_EPOCH":"5867","ELEMENT_SET_NO":"999","REF_FRAME":"TEME","TIME_SYSTEM":"UTC","FILE":"3392478","ECCENTRICITY":"0.00016830","MEAN_MOTION_DOT":"0.00005659","PERIOD":"95.592","SITE":"AFETR","MEAN_ELEMENT_THEORY":"SGP4","GP_ID":"200700495","MEAN_MOTION":"15.06407487","CENTER_NAME":"EARTH","ARG_OF_PERICENTER":"58.5750","TLE_LINE1":"1 48003U 21024AC  22097.78480027  .00005659  00000-0  39839-3 0  9990","APOAPSIS":"548.356","TLE_LINE2":"2 48003  53.0553 284.6898 0001683  58.5750 301.5404 15.06407487 58676","RCS_SIZE":"LARGE","MEAN_ANOMALY":"301.5404","OBJECT_ID":"2021-024AC","EPHEMERIS_TYPE":"0","CLASSIFICATION_TYPE":"U","LAUNCH_DATE":"2021-03-24","NORAD_CAT_ID":"48003","EPOCH":"2022-04-07T18:50:06.743328","OBJECT_TYPE":"PAYLOAD","COUNTRY_CODE":"US","INCLINATION":"53.0553","BSTAR":"0.00039839000000","PERIAPSIS":"546.025"},{"OBJECT_NAME":"STARLINK-2254","DECAY_DATE":null,"SEMIMAJOR_AXIS":"6925.327","RA_OF_ASC_NODE":"254.4954","REV_AT_EPOCH":"5910","MEAN_MOTION_DDOT":"0.0000000000000","ELEMENT_SET_NO":"999","REF_FRAME":"TEME","ECCENTRICITY":"0.00018760","FILE":"3392478","TIME_SYSTEM":"UTC","GP_ID":"200700745","MEAN_ELEMENT_THEORY":"SGP4","SITE":"AFETR","MEAN_MOTION_DOT":"0.00001708","PERIOD":"95.592","MEAN_MOTION":"15.06407054","TLE_LINE2":"2 48005  53.0548 254.4954 0001876  44.8968 315.2172 15.06407054 59106","TLE_LINE1":"1 48005U 21024AE  22097.82810413  .00001708  00000-0  13353-3 0  9997","APOAPSIS":"548.491","CENTER_NAME":"EARTH","ARG_OF_PERICENTER":"44.8968","OBJECT_ID":"2021-024AE","MEAN_ANOMALY":"315.2172","RCS_SIZE":"LARGE","LAUNCH_DATE":"2021-03-24","CLASSIFICATION_TYPE":"U","EPHEMERIS_TYPE":"0","OBJECT_TYPE":"PAYLOAD","COUNTRY_CODE":"US","EPOCH":"2022-04-07T19:52:28.196832","NORAD_CAT_ID":"48005","INCLINATION":"53.0548","PERIAPSIS":"545.893","BSTAR":"0.00013353000000"},{"TLE_LINE1":"1 48008U 21024AH  22097.91667824 -.00025655  00000-0 -17089-2 0  9994","APOAPSIS":"548.141","TLE_LINE2":"2 48008  53.0532 189.0860 0001407  56.5978 306.6706 15.06415288  3588","CENTER_NAME":"EARTH","ARG_OF_PERICENTER":"56.5978","MEAN_ANOMALY":"306.6706","RCS_SIZE":"LARGE","OBJECT_ID":"2021-024AH","MEAN_ELEMENT_THEORY":"SGP4","GP_ID":"200700991","MEAN_MOTION_DOT":"-0.00025655","PERIOD":"95.591","SITE":"AFETR","MEAN_MOTION":"15.06415288","INCLINATION":"53.0532","BSTAR":"-0.00170890000000","PERIAPSIS":"546.192","LAUNCH_DATE":"2021-03-24","EPHEMERIS_TYPE":"0","CLASSIFICATION_TYPE":"U","EPOCH":"2022-04-07T22:00:00.999936","OBJECT_TYPE":"PAYLOAD","COUNTRY_CODE":"US","NORAD_CAT_ID":"48008","RA_OF_ASC_NODE":"189.0860","REV_AT_EPOCH":"358","MEAN_MOTION_DDOT":"0.0000000000000","OBJECT_NAME":"STARLINK-2271","DECAY_DATE":null,"SEMIMAJOR_AXIS":"6925.302","ECCENTRICITY":"0.00014070","FILE":"3392478","TIME_SYSTEM":"UTC","REF_FRAME":"TEME","ELEMENT_SET_NO":"999"},{"REF_FRAME":"TEME","ELEMENT_SET_NO":"999","TIME_SYSTEM":"UTC","ECCENTRICITY":"0.00017110","FILE":"3392478","SEMIMAJOR_AXIS":"6925.345","DECAY_DATE":null,"OBJECT_NAME":"STARLINK-2153","MEAN_MOTION_DDOT":"0.0000000000000","REV_AT_EPOCH":"5897","RA_OF_ASC_NODE":"264.4090","NORAD_CAT_ID":"48009","COUNTRY_CODE":"US","OBJECT_TYPE":"PAYLOAD","EPOCH":"2022-04-07T20:12:22.580064","CLASSIFICATION_TYPE":"U","EPHEMERIS_TYPE":"0","LAUNCH_DATE":"2021-03-24","PERIAPSIS":"546.025","BSTAR":"0.00015635000000","INCLINATION":"53.0574","MEAN_MOTION":"15.06401158","SITE":"AFETR","MEAN_MOTION_DOT":"0.00002048","PERIOD":"95.592","GP_ID":"200701246","MEAN_ELEMENT_THEORY":"SGP4","OBJECT_ID":"2021-024AJ","MEAN_ANOMALY":"311.9985","RCS_SIZE":"LARGE","CENTER_NAME":"EARTH","ARG_OF_PERICENTER":"48.1150","TLE_LINE2":"2 48009  53.0574 264.4090 0001711  48.1150 311.9985 15.06401158 58977","APOAPSIS":"548.395","TLE_LINE1":"1 48009U 21024AJ  22097.84192801  .00002048  00000-0  15635-3 0  9990"}];
